OBJECT_NAME,OBJECT_ID,EPOCH,MEAN_MOTION,ECCENTRICITY,INCLINATION,RA_OF_ASC_NODE,ARG_OF_PERICENTER,MEAN_ANOMALY,EPHEMERIS_TYPE,CLASSIFICATION_TYPE,NORAD_CAT_ID,ELEMENT_SET_NO,REV_AT_EPOCH,BSTAR,MEAN_MOTION_DOT,MEAN_MOTION_DDOT
ELEKTRO-L 2,2015-074A,2026-07-23T23:10:50.598624,1.00272751,.00006009,6.7841,70.0677,231.2818,333.5735,0,U,41105,999,3887,0,-.118E-5,0
COSMOS 2513,2015-075A,2026-07-22T03:08:42.612864,1.00271498,.00026064,0.0578,104.8586,343.9450,338.5084,0,U,41121,999,3889,0,-.135E-5,0
EXPRESS-AMU1,2015-082A,2026-07-24T05:20:38.783904,1.00271354,.00025356,0.0159,65.0616,58.5924,294.5219,0,U,41191,999,3863,0,.161E-5,0
GAOFEN-4,2015-083A,2026-07-24T06:35:39.666624,1.00274204,.00036585,0.4507,83.8424,121.9832,300.7713,0,U,41194,999,3890,0,-.33E-5,0
BELINTERSAT-1,2016-001A,2026-07-24T06:20:18.638304,1.00270199,.00017551,0.0304,232.2066,199.8559,16.5011,0,U,41238,999,3860,0,.112E-5,0
IRNSS-1E,2016-003A,2026-07-21T00:43:29.481312,1.00275296,.0019282,33.3051,59.2585,176.3074,185.9195,0,U,41241,999,3842,0,-.317E-5,0
EUTELSAT 9B,2016-005A,2026-07-24T06:08:12.299424,1.00270285,.00012652,0.0204,48.3075,63.3711,291.3419,0,U,41310,999,3848,0,.67E-6,0
SES-9,2016-013A,2026-07-24T05:49:38.649216,1.00271683,.00024472,0.0206,322.9317,142.4089,32.3394,0,U,41380,999,3781,0,-.34E-5,0
EUTELSAT 65 WEST A,2016-014A,2026-07-24T05:46:59.331936,1.00271545,.00024443,0.0805,302.3376,174.8036,206.3828,0,U,41382,999,3789,0,-.271E-5,0
IRNSS-1F,2016-015A,2026-07-24T06:14:56.653152,1.00271046,.00178309,5.4391,95.9273,179.5808,152.6144,0,U,41384,999,3803,0,.157E-5,0
BEIDOU-2 IGSO-6,2016-021A,2026-06-26T02:38:38.671584,1.00258926,.0057558,60.2385,37.9495,231.0163,137.2672,0,U,41434,999,3757,0,-.145E-5,0
IRNSS-1G,2016-027A,2026-07-23T23:51:46.674144,1.00265217,.00057915,5.2844,96.6225,13.8049,318.7984,0,U,41469,999,3754,0,-.335E-5,0
JCSAT-2B,2016-028A,2026-07-24T05:06:53.262144,1.00269717,.00012655,0.0168,63.6153,47.4270,61.6122,0,U,41471,999,3750,0,-.16E-5,0
THAICOM 8,2016-031A,2026-07-24T02:44:38.740128,1.00272112,.00030994,0.0666,42.4926,37.4233,341.5710,0,U,41552,999,3708,0,-.116E-5,0
INTELSAT 31 (IS-31),2016-035A,2026-07-24T05:39:32.245632,1.00272099,.00008306,0.0035,13.4141,299.4868,338.8907,0,U,41581,999,3705,0,-.146E-5,0
BEIDOU-2 G7,2016-037A,2026-07-24T06:37:09.522624,1.00269635,.00062006,1.8097,69.5639,2.9408,79.3224,0,U,41586,999,726,0,-.349E-5,0
ABS-2A (MONGOLSAT-1),2016-038A,2026-07-24T02:44:38.740128,1.00268616,.00019309,0.0188,48.6632,26.8039,342.2546,0,U,41588,999,3707,0,0,0
EUTELSAT 117 WEST B,2016-038B,2026-07-23T14:08:19.832352,1.00273737,.00001639,0.0071,180.9991,3.2430,212.1722,0,U,41589,999,3702,0,-.7E-7,0
BRISAT,2016-039A,2026-07-22T19:38:38.857920,1.00268989,.00020129,0.0108,24.7018,90.3568,270.6473,0,U,41591,999,3696,0,-.193E-5,0
ECHOSTAR 18,2016-039B,2026-07-24T04:49:09.665184,1.00271878,.00016873,0.0173,63.0526,52.8085,196.9943,0,U,41592,999,3699,0,-.277E-5,0
MUOS-5,2016-041A,2026-07-23T22:44:49.654752,1.00273897,.02000603,2.1267,302.3980,260.4658,334.9318,0,U,41622,999,3745,0,-.143E-5,0
TIANTONG-1 1,2016-048A,2026-07-24T01:11:38.743008,1.00271708,.00049991,3.9188,43.6879,59.5800,317.8105,0,U,41725,999,3664,0,-.315E-5,0
JCSAT-16,2016-050A,2026-07-24T06:46:38.612640,1.00271044,.00012073,0.0172,61.9380,58.7953,66.8750,0,U,41729,999,3644,0,-.246E-5,0
USA 270,2016-052A,2026-07-23T10:09:41.747040,1.00263076,.0009723,4.2870,76.7200,103.6309,39.1787,0,U,41744,999,2849,0,-.351E-5,0
USA 271,2016-052B,2026-07-23T01:04:38.584128,1.00274198,.00128,4.2588,76.7939,166.5184,171.6221,0,U,41745,999,2827,0,-.291E-5,0
INTELSAT 36 (IS-36),2016-053A,2026-07-24T04:42:38.627424,1.00269486,.0002388,0.0101,36.0550,314.5912,90.4218,0,U,41747,999,3632,0,-.19E-6,0
INSAT-3DR,2016-054A,2026-07-24T02:44:38.740128,1.00271852,.00102373,0.0913,88.8832,180.2139,147.8823,0,U,41752,999,3618,0,-.72E-6,0
GSAT-18,2016-060A,2026-07-24T02:44:38.740128,1.00272486,.00054659,0.0564,91.2771,351.4999,334.1910,0,U,41793,999,3589,0,-.72E-6,0
SKY MUSTER 2 (NBN1B),2016-060B,2026-07-23T17:05:14.011872,1.00269561,.00018177,0.0220,57.9608,64.8574,219.7413,0,U,41794,999,3588,0,0,0
HIMAWARI-9,2016-064A,2026-07-24T06:45:46.197216,1.00270957,.00025235,0.0186,59.5720,122.4362,2.1919,0,U,41836,999,3558,0,0,0
SHIJIAN-17 (SJ-17),2016-065A,2026-07-23T18:58:50.710080,0.99869959,.0002202,5.8430,72.1590,42.3900,293.4702,0,U,41838,999,3556,0,-.1E-6,0
GOES 16,2016-071A,2026-07-24T06:49:32.326752,1.00271964,.00007801,0.4259,85.4076,70.3604,143.9193,0,U,41866,999,3547,0,-.86E-6,0
TIANLIAN 1-04,2016-072A,2026-07-24T07:46:52.183776,1.00272849,.00444322,0.9615,82.6573,91.1416,61.7331,0,U,41869,999,3567,0,.35E-6,0
WGS F8 (USA 272),2016-075A,2026-07-24T04:53:38.520384,1.00272380,.00001445,0.0220,57.0497,18.5382,89.5618,0,U,41879,999,3519,0,-.197E-5,0
FENGYUN 4A,2016-077A,2026-07-24T06:40:46.676064,1.00264408,.00079937,2.4142,79.8574,158.4685,287.4412,0,U,41882,999,3530,0,-.355E-5,0
ECHOSTAR 19,2016-079A,2026-07-24T05:38:40.756416,1.00271192,.0001569,0.0169,68.2735,44.5477,176.7026,0,U,41893,999,3507,0,-.133E-5,0
JCSAT-110A (JCSAT-15),2016-082A,2026-07-24T05:49:38.649216,1.00271035,.0000811,0.0171,60.1559,62.2931,16.9913,0,U,41903,999,3513,0,-.346E-5,0
STAR ONE D1,2016-082B,2026-07-24T06:28:23.149632,1.00270617,.00020694,0.0146,287.3964,193.7201,193.9828,0,U,41904,999,3514,0,-.206E-5,0
TJS-2,2017-001A,2026-07-24T04:42:38.627424,1.00273139,.0000937,0.9258,84.8361,85.8630,268.4177,0,U,41911,999,3508,0,-.2E-7,0
SBIRS GEO-4 (USA 273),2017-004A,2026-07-23T20:51:38.651040,1.00279954,.00029202,2.3124,44.1976,68.5491,163.6702,0,U,41937,999,3496,0,.131E-5,0
HISPASAT 36W-1,2017-006A,2026-07-24T04:25:38.654688,1.00271629,.0000992,0.0117,319.5792,163.9967,208.7444,0,U,41942,999,3461,0,-.239E-5,0
TELKOM 3S,2017-007A,2026-07-23T16:57:59.705856,1.00270414,.00025442,0.0169,76.5927,46.5299,190.8006,0,U,41944,999,3450,0,-.358E-5,0
INTELSAT 32E (IS-32E),2017-007B,2026-07-24T04:33:38.618784,1.00270599,.00004806,0.0222,52.6402,357.3476,277.1569,0,U,41945,999,3459,0,0,0
ECHOSTAR 23,2017-014A,2026-07-24T04:40:32.543040,1.00272816,.00021119,0.0180,60.3225,61.9576,139.8696,0,U,42070,999,3429,0,-.52E-6,0
WGS F9 (USA 275),2017-016A,2026-07-24T04:09:38.544192,1.00270084,.00003406,0.0198,45.0856,75.8793,231.3682,0,U,42075,999,3426,0,0,0
SES-10,2017-017A,2026-07-24T00:38:31.059168,1.00273383,.00028574,0.0179,51.6597,71.2091,121.6123,0,U,42432,999,3412,0,-.268E-5,0
CHINASAT 16 (SJ-13),2017-018A,2026-07-24T05:49:38.649216,1.00269902,.00048622,0.0884,88.9689,127.7357,283.2059,0,U,42662,999,3412,0,-.347E-5,0
KOREASAT 7,2017-023A,2026-07-23T18:40:07.504032,1.00270272,.00007731,0.0215,26.5999,103.3694,207.4586,0,U,42691,999,3373,0,-.357E-5,0
SGDC,2017-023B,2026-07-23T08:55:02.580096,1.00272045,.00024583,0.0125,41.9411,80.9577,237.1135,0,U,42692,999,3377,0,-.245E-5,0
GSAT-9,2017-024A,2026-07-23T08:18:55.453824,1.00273413,.0002242,0.1050,90.4910,29.7759,42.8556,0,U,42695,999,3366,0,-.282E-5,0
INMARSAT 5-F4,2017-025A,2026-07-24T05:04:38.652672,1.00273094,.00006438,0.0183,54.0269,92.8953,287.6726,0,U,42698,999,3364,0,.8E-6,0
SES-15,2017-026A,2026-07-24T05:21:27.474624,1.00267777,.00006383,0.0302,317.7820,134.5330,160.8306,0,U,42709,999,780,0,.65E-6,0
QZS-2 (MICHIBIKI-2),2017-028A,2026-07-23T09:57:21.718944,1.00274629,.0756665,39.3751,242.6194,269.7024,80.6651,0,U,42738,999,798,0,-.112E-5,0
VIASAT-2,2017-029A,2026-07-24T05:45:36.963360,1.00270953,.00005971,0.0177,309.4381,199.1864,169.8214,0,U,42740,999,3356,0,-.26E-5,0
EUTELSAT 172B,2017-029B,2026-07-24T06:54:36.267264,1.00272896,.00002747,0.0302,118.8406,331.0614,127.7512,0,U,42741,999,3411,0,0,0
GSAT-19,2017-031A,2026-07-24T06:19:11.246304,1.00274012,.00063792,0.0605,89.5496,5.0786,350.0216,0,U,42747,999,3351,0,.13E-5,0
ECHOSTAR 21,2017-032A,2026-07-24T06:08:27.275136,1.00273380,.00024801,1.7707,358.0923,115.4496,290.7985,0,U,42749,999,3347,0,.73E-6,0
BULGARIASAT-1,2017-038A,2026-07-24T06:06:05.001984,1.00273209,.00030069,0.0221,62.6675,67.6329,265.1031,0,U,42801,999,3321,0,.17E-6,0
HELLAS-SAT 3,2017-040A,2026-07-24T06:16:41.484864,1.00269645,.00036376,0.0431,41.3792,36.0409,357.7408,0,U,42814,999,3317,0,.158E-5,0
GSAT-17,2017-040B,2026-07-24T02:20:38.622336,1.00273373,.00019077,0.0442,259.7983,11.4423,159.2328,0,U,42815,999,3315,0,-.253E-5,0
INTELSAT 35E (IS-35E),2017-041A,2026-07-24T05:55:43.494816,1.00271324,.00021532,0.0167,62.9169,56.8056,236.6757,0,U,42818,999,3318,0,-.233E-5,0
COSMOS 2520,2017-046A,2026-07-23T06:21:19.508832,1.00268630,.0000287,0.0292,104.7584,334.7815,1.8018,0,U,42907,999,3275,0,.142E-5,0
TDRS 13,2017-047A,2026-07-24T06:02:20.361120,1.00272743,.0015147,3.4621,3.6312,112.1769,265.3566,0,U,42915,999,3272,0,-.95E-6,0
QZS-3 (MICHIBIKI-3),2017-048A,2026-07-24T06:41:46.579776,1.00268456,.00029188,0.0590,199.9162,288.0172,41.5033,0,U,42917,999,3263,0,-.343E-5,0
AMAZONAS 5,2017-053A,2026-07-24T00:40:41.975904,1.00272970,.000123,0.0352,316.0706,143.9991,150.8532,0,U,42934,999,3241,0,-.277E-5,0
ASIASAT 9,2017-057A,2026-07-22T15:19:24.461184,1.00269552,.00020682,0.0156,54.9271,56.3405,181.0650,0,U,42942,999,3221,0,-.356E-5,0
INTELSAT 37E (IS-37E),2017-059A,2026-07-24T06:00:28.040256,1.00270320,.00030997,0.0259,60.1564,69.7696,244.1734,0,U,42950,999,3243,0,0,0
BSAT-4A,2017-059B,2026-07-24T05:49:38.649216,1.00271329,.00035666,0.0334,1.3284,84.8166,53.0578,0,U,42951,999,3217,0,-.345E-5,0
QZS-4 (MICHIBIKI-4),2017-062A,2026-07-23T17:06:21.403872,1.00289002,.07469298,40.0864,343.0203,268.7110,85.8328,0,U,42965,999,3217,0,-.35E-5,0
SES-11 (ECHOSTAR 105),2017-063A,2026-07-24T05:35:37.921056,1.00274135,.00030539,0.0503,280.5806,198.0873,162.2495,0,U,42967,999,3209,0,-.84E-6,0
KOREASAT 5A,2017-067A,2026-07-24T05:41:38.469984,1.00271309,.00010764,0.0043,356.5569,105.8622,38.0935,0,U,42984,999,3190,0,-.353E-5,0
ALCOMSAT 1,2017-078A,2026-07-24T05:58:28.231104,1.00272182,.00025593,0.0270,298.1806,183.1008,245.4951,0,U,43039,999,3166,0,-.181E-5,0
